NORAD_CAT_ID,OBJECT_NAME,OBJECT_TYPE,EPOCH,MEAN_MOTION,ECCENTRICITY,INCLINATION,RA_OF_ASC_NODE,ARG_OF_PERICENTER,MEAN_ANOMALY,BSTAR,MEAN_MOTION_DOT,MEAN_MOTION_DDOT,TLE_LINE0,TLE_LINE1,TLE_LINE2,SEMIMAJOR_AXIS,PERIOD,APOGEE,PERIGEE,DECAYED
55271.0,STARLINK-5306,PAYLOAD,2024-04-20 01:31:00,14.9833607,0.0002363,70.0032,340.8391,273.5608,86.5281,0.00081722,9.673e-05,0.0,0 STARLINK-5306,1 55271U 23010C   24111.06320095  .00009673  00000-0  81722-3 0  9998,2 55271  70.0032 340.8391 0002363 273.5608  86.5281 14.98336070 69632,6950.174,96.107,573.681,570.397,0.0
55271.0,STARLINK-5306,PAYLOAD,2024-04-20 19:08:29,14.98331155,0.000244,70.0044,338.9927,228.6672,131.4277,-2.1784e-05,-3.53e-06,0.0,0 STARLINK-5306,1 55271U 23010C   24111.79755947 -.00000353  00000-0 -21784-4 0  9997,2 55271  70.0044 338.9927 0002440 228.6672 131.4277 14.98331155 69742,6950.189,96.107,573.75,570.358,0.0
55271.0,STARLINK-5306,PAYLOAD,2024-04-21 01:33:01,14.98351701,0.00027,69.9999,338.3152,262.2849,97.8004,-0.0005024,-6.086e-05,0.0,0 STARLINK-5306,1 55271U 23010C   24112.06459659 -.00006086  00000-0 -50240-3 0  9996,2 55271  69.9999 338.3152 0002700 262.2849  97.8004 14.98351701 69473,6950.126,96.106,573.867,570.114,0.0
55271.0,STARLINK-5306,PAYLOAD,2024-04-21 14:22:06,14.9833286,0.000275,69.9998,336.9674,261.9032,98.1815,-2.0116e-05,-3.33e-06,0.0,0 STARLINK-5306,1 55271U 23010C   24112.59868323 -.00000333  00000-0 -20116-4 0  9995,2 55271  69.9998 336.9674 0002750 261.9032  98.1815 14.98332860 69862,6950.184,96.107,573.96,570.138,0.0
55271.0,STARLINK-5306,PAYLOAD,2024-04-21 19:10:30,14.98331241,0.000282,70.0013,336.4626,263.3957,96.6881,-3.0281e-07,-9.7e-07,0.0,0 STARLINK-5306,1 55271U 23010C   24112.79896074 -.00000097  00000-0 -30281-6 0  9994,2 55271  70.0013 336.4626 0002820 263.3957  96.6881 14.98331241 69582,6950.189,96.107,574.014,570.094,0.0
55271.0,STARLINK-5306,PAYLOAD,2024-04-21 22:22:46,14.9833526,0.0002667,70.0015,336.1263,256.639,103.4472,9.5274e-05,1.044e-05,0.0,0 STARLINK-5306,1 55271U 23010C   24112.93247839  .00001044  00000-0  95274-4 0  9991,2 55271  70.0015 336.1263 0002667 256.6390 103.4472 14.98335260 69918,6950.177,96.107,573.895,570.188,0.0
55271.0,STARLINK-5306,PAYLOAD,2024-04-22 01:35:02,14.98338924,0.0002782,70.0012,335.7895,262.4078,97.6765,0.00012928,1.45e-05,0.0,0 STARLINK-5306,1 55271U 23010C   24113.06599644  .00001450  00000-0  12928-3 0  9995,2 55271  70.0012 335.7895 0002782 262.4078  97.6765 14.98338924 69624,6950.165,96.106,573.964,570.097,0.0
55271.0,STARLINK-5306,PAYLOAD,2024-04-22 20:48:39,14.983259,0.0002707,70.0013,333.77,260.547,99.5384,0.00017764,2.027e-05,0.0,0 STARLINK-5306,1 55271U 23010C   24113.86712588  .00002027  00000-0  17764-3 0  9991,2 55271  70.0013 333.7700 0002707 260.5470  99.5384 14.98325900 69741,6950.206,96.107,573.952,570.189,0.0
55271.0,STARLINK-5306,PAYLOAD,2024-04-22 22:24:47,14.98325101,0.000272,70.0013,333.6017,260.7334,99.3517,0.00015317,1.735e-05,0.0,0 STARLINK-5306,1 55271U 23010C   24113.93388660  .00001735  00000-0  15317-3 0  9996,2 55271  70.0013 333.6017 0002720 260.7334  99.3517 14.98325101 70063,6950.208,96.107,573.963,570.183,0.0
55271.0,STARLINK-5306,PAYLOAD,2024-04-23 01:37:03,14.98326691,0.0002725,70.0013,333.2649,259.8277,100.2575,0.00016738,1.905e-05,0.0,0 STARLINK-5306,1 55271U 23010C   24114.06740619  .00001905  00000-0  16738-3 0  9994,2 55271  70.0013 333.2649 0002725 259.8277 100.2575 14.98326691 70083,6950.203,96.107,573.962,570.174,0.0
55271.0,STARLINK-5306,PAYLOAD,2024-04-23 20:50:40,14.98331057,0.0002666,70.0013,331.244,251.7285,108.3584,0.00012752,1.429e-05,0.0,0 STARLINK-5306,1 55271U 23010C   24114.86852449  .00001429  00000-0  12752-3 0  9990,2 55271  70.0013 331.2440 0002666 251.7285 108.3584 14.98331057 69892,6950.19,96.107,573.908,570.202,0.0
55271.0,STARLINK-5306,PAYLOAD,2024-04-23 22:26:48,14.98334659,0.0002709,70.0017,331.0764,254.9669,105.119,0.00014476,1.635e-05,0.0,0 STARLINK-5306,1 55271U 23010C   24114.93528223  .00001635  00000-0  14476-3 0  9992,2 55271  70.0017 331.0764 0002709 254.9669 105.1190 14.98334659 70219,6950.178,96.107,573.926,570.161,0.0
55271.0,STARLINK-5306,PAYLOAD,2024-04-24 14:28:08,14.98335479,0.000267,70.0011,329.3925,256.2516,103.8346,0.0002369,2.735e-05,0.0,0 STARLINK-5306,1 55271U 23010C   24115.60288124  .00002735  00000-0  23690-3 0  9990,2 55271  70.0011 329.3925 0002670 256.2516 103.8346 14.98335479 70315,6950.176,96.107,573.897,570.185,0.0
55271.0,STARLINK-5306,PAYLOAD,2024-04-24 20:52:41,14.98334223,0.000271,70.0011,328.7198,257.2705,102.8151,0.00018015,2.057e-05,0.0,0 STARLINK-5306,1 55271U 23010C   24115.86992171  .00002057  00000-0  18015-3 0  9994,2 55271  70.0011 328.7198 0002710 257.2705 102.8151 14.98334223 70045,6950.18,96.107,573.928,570.161,0.0
55271.0,STARLINK-5306,PAYLOAD,2024-04-24 22:28:49,14.98334303,0.0002709,70.0011,328.5514,257.4882,102.5974,0.00017479,1.993e-05,0.0,0 STARLINK-5306,1 55271U 23010C   24115.93668161  .00001993  00000-0  17479-3 0  9992,2 55271  70.0011 328.5514 0002709 257.4882 102.5974 14.98334303 70365,6950.18,96.107,573.927,570.162,0.0
55271.0,STARLINK-5306,PAYLOAD,2024-04-25 14:30:09,14.98332198,0.000271,70.0011,326.8686,258.9941,101.0913,9.6526e-06,2.2e-07,0.0,0 STARLINK-5306,1 55271U 23010C   24116.60428181  .00000022  00000-0  96526-5 0  9997,2 55271  70.0011 326.8686 0002710 258.9941 101.0913 14.98332198 70468,6950.186,96.107,573.935,570.168,0.0
55271.0,STARLINK-5306,PAYLOAD,2024-04-25 20:54:42,14.98332914,0.0002726,70.0,326.1951,257.9687,102.1167,4.4665e-05,4.4e-06,0.0,0 STARLINK-5306,1 55271U 23010C   24116.87132334  .00000440  00000-0  44665-4 0  9998,2 55271  70.0000 326.1951 0002726 257.9687 102.1167 14.98332914 70196,6950.184,96.107,573.943,570.154,0.0
55271.0,STARLINK-5306,PAYLOAD,2024-04-25 22:30:50,14.98333599,0.0002716,70.0,326.0268,258.1425,101.943,4.9273e-05,4.95e-06,0.0,0 STARLINK-5306,1 55271U 23010C   24116.93808250  .00000495  00000-0  49273-4 0  9992,2 55271  70.0000 326.0268 0002716 258.1425 101.9430 14.98333599 70514,6950.182,96.107,573.934,570.159,0.0
55271.0,STARLINK-5306,PAYLOAD,2024-04-26 14:32:10,14.98333296,0.0002592,70.0002,324.3426,260.5929,99.4938,8.6741e-05,9.42e-06,0.0,0 STARLINK-5306,1 55271U 23010C   24117.60567972  .00000942  00000-0  86741-4 0  9998,2 55271  70.0002 324.3426 0002592 260.5929  99.4938 14.98333296 70610,6950.183,96.107,573.849,570.246,0.0
55271.0,STARLINK-5306,PAYLOAD,2024-04-26 16:08:18,14.98333062,0.0002611,70.0001,324.1745,259.5355,100.551,7.9362e-05,8.54e-06,0.0,0 STARLINK-5306,1 55271U 23010C   24117.67243983  .00000854  00000-0  79362-4 0  9991,2 55271  70.0001 324.1745 0002611 259.5355 100.5510 14.98333062 70626,6950.183,96.107,573.863,570.234,0.0
55271.0,STARLINK-5306,PAYLOAD,2024-04-27 06:33:31,14.98330871,0.000257,69.9998,322.6567,277.3309,82.7558,0.00020243,2.323e-05,0.0,0 STARLINK-5306,1 55271U 23010C   24118.27327962  .00002323  00000-0  20243-3 0  9994,2 55271  69.9998 322.6567 0002570 277.3309  82.7558 14.98330871 70408,6950.19,96.107,573.841,570.269,0.0
55271.0,STARLINK-5306,PAYLOAD,2024-04-27 14:34:09,14.98357232,0.0002696,69.9997,321.817,265.3717,94.7134,0.00038026,4.45e-05,0.0,0 STARLINK-5306,1 55271U 23010C   24118.60705278  .00004450  00000-0  38026-3 0  9992,2 55271  69.9997 321.8170 0002696 265.3717  94.7134 14.98357232 70769,6950.109,96.105,573.847,570.1,0.0
55271.0,STARLINK-5306,PAYLOAD,2024-04-27 20:58:43,14.9832889,0.0002886,69.9998,321.1437,267.3344,92.7485,5.6403e-05,5.8e-06,0.0,0 STARLINK-5306,1 55271U 23010C   24118.87411689  .00000580  00000-0  56403-4 0  9991,2 55271  69.9998 321.1437 0002886 267.3344  92.7485 14.98328890 70808,6950.196,96.107,574.067,570.055,0.0
55271.0,STARLINK-5306,PAYLOAD,2024-04-28 13:00:05,14.98324189,0.0003114,69.9983,319.4599,267.3773,92.703,-0.00011222,-1.432e-05,0.0,0 STARLINK-5306,1 55271U 23010C   24119.54172472 -.00001432  00000-0 -11222-3 0  9998,2 55271  69.9983 319.4599 0003114 267.3773  92.7030 14.98324189 70591,6950.211,96.107,574.24,569.912,0.0
55271.0,STARLINK-5306,PAYLOAD,2024-04-28 14:36:13,14.98324584,0.0003129,69.9983,319.2915,267.3801,92.7,-0.00010772,-1.378e-05,0.0,0 STARLINK-5306,1 55271U 23010C   24119.60848433 -.00001378  00000-0 -10772-3 0  9990,2 55271  69.9983 319.2915 0003129 267.3801  92.7000 14.98324584 70911,6950.21,96.107,574.249,569.9,0.0
55271.0,STARLINK-5306,PAYLOAD,2024-04-28 22:36:53,14.98327297,0.0003057,69.9984,318.4494,268.5297,91.5512,-6.0669e-05,-8.17e-06,0.0,0 STARLINK-5306,1 55271U 23010C   24119.94228204 -.00000817  00000-0 -60669-4 0  9993,2 55271  69.9984 318.4494 0003057 268.5297  91.5512 14.98327297 70961,6950.201,96.107,574.191,569.942,0.0
55271.0,STARLINK-5306,PAYLOAD,2024-04-29 00:13:01,14.98328439,0.0003054,69.9984,318.2808,268.4687,91.6122,-4.402e-05,-6.18e-06,0.0,0 STARLINK-5306,1 55271U 23010C   24120.00904102 -.00000618  00000-0 -44020-4 0  9992,2 55271  69.9984 318.2808 0003054 268.4687  91.6122 14.98328439 70661,6950.198,96.107,574.185,569.94,0.0
55271.0,STARLINK-5306,PAYLOAD,2024-04-29 14:38:13,14.98342475,0.0003108,69.9983,316.7656,270.244,89.8363,-0.00015046,-1.888e-05,0.0,0 STARLINK-5306,1 55271U 23010C   24120.60987391 -.00001888  00000-0 -15046-3 0  9994,2 55271  69.9983 316.7656 0003108 270.2440  89.8363 14.98342475 71069,6950.154,96.106,574.179,569.859,0.0
55271.0,STARLINK-5306,PAYLOAD,2024-04-29 21:02:45,14.98339287,0.0003117,69.9983,316.0922,268.847,91.2332,-4.4811e-05,-6.28e-06,0.0,0 STARLINK-5306,1 55271U 23010C   24120.87691211 -.00000628  00000-0 -44811-4 0  9990,2 55271  69.9983 316.0922 0003117 268.8470  91.2332 14.98339287 70793,6950.164,96.106,574.196,569.863,0.0
55271.0,STARLINK-5306,PAYLOAD,2024-04-30 13:04:06,14.98327139,0.0003165,69.9982,314.4084,267.8466,92.2331,0.00018041,2.06e-05,0.0,0 STARLINK-5306,1 55271U 23010C   24121.54451765  .00002060  00000-0  18041-3 0  9998,2 55271  69.9982 314.4084 0003165 267.8466  92.2331 14.98327139 70894,6950.202,96.107,574.266,569.867,0.0
